[{"OBJECT_NAME":"STARLINK-1039","OBJECT_ID":"2019-074AH","EPOCH":"2026-03-09T14:46:14.325312","MEAN_MOTION":15.21697508,"ECCENTRICITY":0.000318,"INCLINATION":53.0506,"RA_OF_ASC_NODE":215.4382,"ARG_OF_PERICENTER":172.5659,"MEAN_ANOMALY":187.5385,"EPHEMERIS_TYPE":0,"CLASSIFICATION_TYPE":"U","NORAD_CAT_ID":44744,"ELEMENT_SET_NO":999,"REV_AT_EPOCH":34834,"BSTAR":0.0027625,"MEAN_MOTION_DOT":0.00063546,"MEAN_MOTION_DDOT":0},{"OBJECT_NAME":"ZIYUAN 3-03 (ZY 3-03)","OBJECT_ID":"2020-051A","EPOCH":"2026-03-09T22:27:18.788832","MEAN_MOTION":15.21373756,"ECCENTRICITY":0.00046668,"INCLINATION":97.2927,"RA_OF_ASC_NODE":139.821,"ARG_OF_PERICENTER":314.2348,"MEAN_ANOMALY":45.8505,"EPHEMERIS_TYPE":0,"CLASSIFICATION_TYPE":"U","NORAD_CAT_ID":45939,"ELEMENT_SET_NO":999,"REV_AT_EPOCH":31225,"BSTAR":0.00021267837,"MEAN_MOTION_DOT":4.701e-5,"MEAN_MOTION_DDOT":0}]
